[{"OBJECT_NAME":"OBJECT B","OBJECT_ID":"2022-023B","EPOCH":"2026-03-09T22:47:53.401632","MEAN_MOTION":15.18262382,"ECCENTRICITY":0.00937159,"INCLINATION":63.476,"RA_OF_ASC_NODE":246.6999,"ARG_OF_PERICENTER":346.6129,"MEAN_ANOMALY":13.2499,"EPHEMERIS_TYPE":0,"CLASSIFICATION_TYPE":"U","NORAD_CAT_ID":51947,"ELEMENT_SET_NO":999,"REV_AT_EPOCH":22265,"BSTAR":0.00086643699,"MEAN_MOTION_DOT":0.00019848,"MEAN_MOTION_DDOT":0},{"OBJECT_NAME":"STARLINK-34464","OBJECT_ID":"2025-139A","EPOCH":"2026-03-09T10:33:50.361408","MEAN_MOTION":15.30205407,"ECCENTRICITY":6.866e-5,"INCLINATION":53.1574,"RA_OF_ASC_NODE":128.3623,"ARG_OF_PERICENTER":92.5604,"MEAN_ANOMALY":267.5476,"EPHEMERIS_TYPE":0,"CLASSIFICATION_TYPE":"U","NORAD_CAT_ID":64664,"ELEMENT_SET_NO":999,"REV_AT_EPOCH":4024,"BSTAR":0.0007895388,"MEAN_MOTION_DOT":0.00023101,"MEAN_MOTION_DDOT":0}]
